ONEWEB-0271             
1 48989U 21060Y   25361.79770414  .00000052  00000+0  10119-3 0  9994
2 48989  87.9047 262.8983 0001691  66.7286 293.4023 13.16593525217110
ONEWEB-0272             
1 48990U 21060Z   25361.74385983  .00000062  00000+0  12885-3 0  9997
2 48990  87.9041 262.9231 0001840  71.1804 288.9527 13.16592711217052
ONEWEB-0273             
1 48991U 21060AA  25361.99402671 -.00000064  00000+0 -19979-3 0  9994
2 48991  87.9048 262.8700 0001583  66.7793 293.3505 13.16593047217061
ONEWEB-0274             
1 48992U 21060AB  25361.79136554  .00000021  00000+0  21688-4 0  9999
2 48992  87.9033 262.9312 0001971  75.8201 284.3149 13.16592770217079
ONEWEB-0275             
1 48993U 21060AC  25361.78028164 -.00000005  00000+0 -47159-4 0  9991
2 48993  87.9043 262.9056 0001705  72.1465 287.9852 13.16592818217009
ONEWEB-0276             
1 48994U 21060AD  25361.73752858  .00000020  00000+0  19855-4 0  9998
2 48994  87.9051 262.9137 0001463  70.8009 289.3281 13.16592769217017
ONEWEB-0277             
1 48995U 21060AE  25361.67420716 -.00000034  00000+0 -12324-3 0  9997
2 48995  87.9037 262.9488 0001660  72.5933 287.5380 13.16594343216991
ONEWEB-0278             
1 48996U 21060AF  25361.74069363  .00000059  00000+0  11992-3 0  9998
2 48996  87.9050 262.9089 0001424  78.2991 281.8300 13.16592606217135
ONEWEB-0279             
1 48997U 21060AG  25361.67262529 -.00000038  00000+0 -13396-3 0  9999
2 48997  87.9048 262.9211 0001831  66.9768 293.1556 13.16593679217059
ONEWEB-0280             
1 48998U 21060AH  25361.99164325  .00000079  00000+0  17310-3 0  9993
2 48998  87.9049 262.8636 0001310  65.4625 294.6643 13.16595910217030
ONEWEB-0281             
1 48999U 21060AJ  25361.76920419 -.00000004  00000+0 -44171-4 0  9999
2 48999  87.9045 262.9030 0001739  76.3222 283.8102 13.16592838217075
ONEWEB-0282             
1 49000U 21060AK  25361.79927701  .00000063  00000+0  13164-3 0  9997
2 49000  87.9046 262.9076 0001566  68.8168 291.3130 13.16592519217052
ONEWEB-0283             
1 49001U 21060AL  25361.78820335  .00000067  00000+0  14122-3 0  9991
2 49001  87.9043 262.9101 0001682  69.2500 290.8812 13.16593068217065
ONEWEB-0284             
1 49002U 21060AM  25361.78186182  .00000018  00000+0  12680-4 0  9991
2 49002  87.9044 262.9012 0001233  72.3130 287.8136 13.16592531217041
ONEWEB-0285             
1 49075U 21075A   25361.98334379  .00000429  00000+0  11583-2 0  9997
2 49075  87.8928  24.6620 0001730  93.7470 266.3857 13.12442608212755
ONEWEB-0286             
1 49076U 21075B   25361.81366733  .00000223  00000+0  58547-3 0  9993
2 49076  87.8924  24.7283 0001896  99.2483 260.8860 13.12443132212088
ONEWEB-0287             
1 49077U 21075C   25361.85464256 -.00000435  00000+0 -11525-2 0  9998
2 49077  87.9106  39.9301 0002010 110.5455 249.5893 13.17649216211069
ONEWEB-0288             
1 49078U 21075D   25361.79009678 -.00000443  00000+0 -12663-2 0  9998
2 49078  87.8924  24.6953 0001654  95.1065 265.0253 13.12444028212703
ONEWEB-0289             
1 49079U 21075E   25361.81740233  .00000086  00000+0  18952-3 0  9990
2 49079  87.9094  39.9519 0001355  95.7606 264.3680 13.17649709211630
ONEWEB-0290             
1 49080U 21075F   25361.63866633  .00000054  00000+0  10649-3 0  9995
2 49080  87.9104  39.9504 0001298  81.1601 278.9678 13.17648413211020
ONEWEB-0291             
1 49081U 21075G   25361.85129181  .00000074  00000+0  15814-3 0  9991
2 49081  87.9105  39.9155 0001615 109.7135 250.4171 13.17648301211047
ONEWEB-0293             
1 49082U 21075H   25361.87660479  .00000075  00000+0  16023-3 0  9998
2 49082  87.9095  39.9286 0001548  99.0662 261.0644 13.17648600211070
ONEWEB-0294             
1 49083U 21075J   25361.79687273 -.00000420  00000+0 -12021-2 0  9990
2 49083  87.8932  24.6971 0001417  91.4626 268.6665 13.12442254212094
ONEWEB-0295             
1 49084U 21075K   25361.79981370  .00000046  00000+0  86281-4 0  9999
2 49084  87.9096  39.9491 0001702 108.3479 251.7838 13.17649806211028
ONEWEB-0296             
1 49085U 21075L   25361.62407008 -.00000154  00000+0 -46297-3 0  9997
2 49085  87.8924  24.7346 0001586 105.0228 255.1076 13.12442541212075
ONEWEB-0297             
1 49086U 21075M   25361.80703461 -.00000043  00000+0 -15437-3 0  9999
2 49086  87.8918  24.7286 0001770  97.8639 262.2691 13.12443425212705
ONEWEB-0298             
1 49087U 21075N   25361.80416915 -.00000054  00000+0 -17177-3 0  9990
2 49087  87.9095  39.9450 0001975  98.4556 261.6800 13.17647724211051
ONEWEB-0299             
1 49088U 21075P   25361.80572869  .00000058  00000+0  11537-3 0  9998
2 49088  87.9106  39.9079 0001817 103.1614 256.9721 13.17649671211036
ONEWEB-0300             
1 49089U 21075Q   25361.79941930 -.00000018  00000+0 -86663-4 0  9997
2 49089  87.8931  24.6921 0002025  91.5339 268.6022 13.12442744212723
ONEWEB-0301             
1 49090U 21075R   25361.63084773 -.00000311  00000+0 -90046-3 0  9990
2 49090  87.8925  24.7271 0002100  89.6860 270.4510 13.12442800212061
ONEWEB-0302             
1 49091U 21075S   25361.76975425  .00000095  00000+0  22824-3 0  9994
2 49091  87.8929  24.7075 0001404  95.7866 264.3423 13.12440261212062
ONEWEB-0304             
1 49092U 21075T   25361.85633232  .00000000  00000+0 -33799-4 0  9993
2 49092  87.9104  39.9281 0001786 102.7793 257.3539 13.17650763211016
ONEWEB-0305             
1 49093U 21075U   25361.62179403  .00000013  00000+0 -18757-6 0  9997
2 49093  87.9103  39.9528 0001886 110.8004 249.3330 13.17647627211011
ONEWEB-0308             
1 49094U 21075V   25361.76297347  .00000316  00000+0  84176-3 0  9991
2 49094  87.8927  24.7018 0001749  91.6895 268.4434 13.12441680212073
ONEWEB-0309             
1 49095U 21075W   25361.85297802  .00000038  00000+0  65837-4 0  9993
2 49095  87.9103  39.9222 0001361  99.3218 260.8067 13.17648624211013
ONEWEB-0310             
1 49096U 21075X   25361.77824013 -.00000165  00000+0 -49470-3 0  9992
2 49096  87.8912  24.7358 0001690  95.9514 264.1807 13.12443295212707
ONEWEB-0311             
1 49097U 21075Y   25361.55596891  .00000062  00000+0  12695-3 0  9992
2 49097  87.9103  39.9768 0001948 106.4954 253.6392 13.17650396211029
ONEWEB-0312             
1 49098U 21075Z   25361.87491695  .00000033  00000+0  53037-4 0  9998
2 49098  87.9096  39.9378 0001628 109.2127 250.9181 13.17648745211049
ONEWEB-0313             
1 49099U 21075AA  25361.87984304  .00000060  00000+0  12247-3 0  9990
2 49099  87.9093  39.9442 0001816 100.7674 259.3662 13.17648382211034
ONEWEB-0314             
1 49100U 21075AB  25361.84622969 -.00000002  00000+0 -38925-4 0  9996
2 49100  87.9105  39.9053 0001674 110.9342 249.1968 13.17648250211003
ONEWEB-0315             
1 49101U 21075AC  25361.97983708  .00000438  00000+0  11821-2 0  9997
2 49101  87.8932  24.6442 0002097 101.7930 258.3434 13.12441811212713
ONEWEB-0316             
1 49102U 21075AD  25361.98148632  .00000093  00000+0  20431-3 0  9993
2 49102  87.9173   9.4651 0001832  92.8617 267.2725 13.18687298214646
ONEWEB-0317             
1 49103U 21075AE  25361.97535549  .00000390  00000+0  10565-2 0  9996
2 49103  87.8928  24.6637 0001263  69.2063 290.9200 13.11883921212731
ONEWEB-0318             
1 49104U 21075AF  25361.97818652  .00000070  00000+0  14379-3 0  9999
2 49104  87.9174   9.4533 0001902  98.0311 262.1037 13.18687283214605
ONEWEB-0319             
1 49105U 21075AG  25361.63359777  .00000067  00000+0  13911-3 0  9998
2 49105  87.9093  39.9802 0001853 111.1199 249.0131 13.17647386211019
ONEWEB-0323             
1 49106U 21075AH  25361.81211942  .00000133  00000+0  33399-3 0  9996
2 49106  87.8932  24.6825 0002071 112.1879 247.9470 13.12443109212078
ONEWEB-0329             
1 49107U 21075AJ  25361.86985591 -.00000077  00000+0 -23057-3 0  9999
2 49107  87.9093  39.9340 0001768 104.1891 255.9437 13.17648730211024
ONEWEB-0330             
1 49108U 21075AK  25361.56693505  .00000037  00000+0  61167-4 0  9997
2 49108  87.9096  40.0004 0001543 100.6133 259.5172 13.17647862211020
ONEWEB-0292             
1 49186U 21083A   25361.91831752  .00000057  00000+0  11994-3 0  9993
2 49186  87.8971 354.2961 0001863  92.4140 267.7202 13.13467976208449
ONEWEB-0303             
1 49187U 21083B   25361.97489307  .00000056  00000+0  10949-3 0  9993
2 49187  87.9175   9.4558 0001873  95.6054 264.5292 13.18687124207412
ONEWEB-0306             
1 49188U 21083C   25360.97859809  .00000086  00000+0  18527-3 0  9994
2 49188  87.9173   9.6385 0001663  84.1499 275.9823 13.18687506207324
ONEWEB-0307             
1 49189U 21083D   25361.91239796  .00000170  00000+0  43183-3 0  9997
2 49189  87.8971 354.2881 0001759  88.0305 272.1026 13.13470684208445
ONEWEB-0320             
1 49190U 21083E   25361.74478752  .00000055  00000+0  10620-3 0  9999
2 49190  87.9168   9.5143 0001724  90.7098 269.4232 13.18688090207385
ONEWEB-0321             
1 49191U 21083F   25361.91483739 -.00000043  00000+0 -13843-3 0  9999
2 49191  87.9223 308.5941 0001737  67.9648 292.1670 13.20771775214223
ONEWEB-0322             
1 49192U 21083G   25361.98434544  .00000272  00000+0  71045-3 0  9997
2 49192  87.8973 354.2764 0001826  72.2641 287.8687 13.13468511208446
ONEWEB-0324             
1 49193U 21083H   25361.73076522  .00000069  00000+0  14120-3 0  9994
2 49193  87.9173   9.4953 0001629  93.0780 267.0539 13.18687183207409
ONEWEB-0325             
1 49194U 21083J   25361.58230482  .00000004  00000+0 -21730-4 0  9991
2 49194  87.9173   9.5442 0001797  88.6801 271.4537 13.18687859207399
ONEWEB-0326             
1 49195U 21083K   25361.97668437  .00000064  00000+0  13044-3 0  9993
2 49195  87.9175   9.4526 0002053  96.7034 263.4331 13.18686689207436
ONEWEB-0327             
1 49196U 21083L   25361.97639797  .00000072  00000+0  14884-3 0  9993
2 49196  87.9165   9.4708 0002137  94.6870 265.4506 13.18687304207459
